OBJECT_NAME,OBJECT_ID,EPOCH,MEAN_MOTION,ECCENTRICITY,INCLINATION,RA_OF_ASC_NODE,ARG_OF_PERICENTER,MEAN_ANOMALY,EPHEMERIS_TYPE,CLASSIFICATION_TYPE,NORAD_CAT_ID,ELEMENT_SET_NO,REV_AT_EPOCH,BSTAR,MEAN_MOTION_DOT,MEAN_MOTION_DDOT
SL-14 R/B,1990-018B,2026-07-19T19:40:57.952416,14.82235742,.0016691,82.5214,99.6074,22.3269,337.8668,0,U,20511,999,94215,.20527E-4,.188E-5,0
HST,1990-037B,2026-07-19T08:18:21.937536,15.31084694,.00021472,28.4721,220.7198,143.8470,216.2271,0,U,20580,999,79350,.89068087E-4,.2982E-4,0
SL-16 R/B,1990-046B,2026-07-19T19:40:13.408896,14.15027677,.0012279,70.9994,20.4105,106.1447,254.1028,0,U,20625,999,86708,.17263E-3,.287E-5,0
COSMOS 2084,1990-055A,2026-07-19T11:02:53.530656,15.06231688,.00086078,62.7877,245.9273,322.1852,37.8643,0,U,20663,999,95616,.59566047E-4,.674E-5,0
SL-6 R/B(2),1990-055D,2026-07-19T21:25:49.063008,15.04099600,.0045871,62.7808,164.0725,9.6271,350.5697,0,U,20666,999,95807,.88178E-4,.1044E-4,0
SL-8 R/B,1990-078B,2026-07-19T19:57:13.526784,14.93649748,.034304,82.9031,132.1134,287.7383,68.6677,0,U,20775,999,82899,.20718E-3,.7317E-4,0
SL-8 R/B,1991-006B,2026-07-19T21:13:54.351840,13.77509863,.0023156,82.9403,71.7063,27.8481,343.3193,0,U,21088,999,78227,.52976E-4,.68E-6,0
OKEAN-3,1991-039A,2026-07-19T18:36:20.312640,15.05449803,.0012835,82.5149,208.7761,236.8974,123.1021,0,U,21397,999,88490,.10682E-3,.1564E-4,0
COSMOS 2151,1991-042A,2026-07-19T19:16:19.073856,15.00520725,.0011532,82.4984,316.2044,339.3686,20.7071,0,U,21422,999,88300,.75978E-4,.985E-5,0
SL-14 R/B,1991-042B,2026-07-19T18:23:10.885344,14.81919460,.0017384,82.4929,96.3450,162.0917,198.0913,0,U,21423,999,87263,.17245E-4,.16E-5,0
ERS-1,1991-050A,2026-07-19T18:19:44.830848,14.39535485,.0032186,98.7796,222.2573,168.3208,191.8732,0,U,21574,999,83473,.70792E-4,.176E-5,0
ARIANE 40 R/B,1991-050F,2026-07-19T20:20:57.766848,14.42973248,.0003932,98.1859,247.9897,51.0305,309.1236,0,U,21610,999,83805,.39802E-4,.92E-6,0
INTERCOSMOS 25,1991-086A,2026-07-19T19:09:27.994752,12.12242634,.1484802,82.6000,230.0756,191.9932,164.1785,0,U,21819,999,51269,.8672E-4,.456E-5,0
SL-8 R/B,1992-008B,2026-07-19T20:21:59.160096,13.75984564,.0035893,82.9277,169.5041,123.9810,298.9537,0,U,21876,999,72759,.98328E-4,.111E-5,0
SL-8 R/B,1992-020B,2026-07-19T20:22:55.663104,13.75549901,.0027815,82.9276,55.5919,289.9662,80.7292,0,U,21938,999,71930,-.22708E-4,-.7E-7,0
USA 81,1992-023A,2026-07-19T16:30:48.059136,14.32405607,.0001783,85.0048,55.2438,65.0997,295.0381,0,U,21949,999,11368,.21024E-4,.77E-6,0
COSMOS 2219,1992-076A,2026-07-19T19:12:39.210048,14.14106925,.0018529,71.0608,101.8971,350.6074,9.4699,0,U,22219,999,73705,-.1217E-3,-.279E-5,0
SL-16 R/B,1992-076B,2026-07-19T15:59:21.617088,14.16877941,.0015042,71.0000,270.3633,256.5243,264.6111,0,U,22220,999,74052,-.40127E-4,-.129E-5,0
COSMOS 2221,1992-080A,2026-07-19T20:01:04.973376,14.96611264,.0015911,82.5049,152.4863,106.0303,254.2673,0,U,22236,999,80055,.69871E-4,.824E-5,0
SL-16 R/B,1992-093B,2026-07-19T19:42:16.609248,14.15463982,.000217,71.0213,86.8846,121.2910,238.8426,0,U,22285,999,73185,-.1064E-3,-.255E-5,0
COSMOS 2228,1992-094A,2026-07-19T19:49:50.439072,14.97683182,.0016659,82.5186,110.7794,212.4759,147.5440,0,U,22286,999,79583,.71801E-4,.869E-5,0
SL-16 R/B,1993-016B,2026-07-19T15:55:01.084800,14.15315310,.0008627,71.0087,297.9965,129.9830,230.2051,0,U,22566,999,72084,.175E-3,.293E-5,0
COSMOS 2242,1993-024A,2026-07-19T19:13:02.849952,14.96992125,.0014952,82.5201,140.3409,215.8660,144.1560,0,U,22626,999,80015,.65514E-4,.781E-5,0
SL-16 R/B,1993-059B,2026-07-19T19:34:33.633120,14.17249935,.0016924,70.9901,92.4971,1.6510,358.4667,0,U,22803,999,69825,.10195E-3,.158E-5,0
ARIANE 40 R/B,1993-061H,2026-07-19T19:33:37.969056,14.32919528,.0009576,98.4802,266.9917,250.3974,109.6177,0,U,22830,999,71302,.35855E-4,.55E-6,0
COSMOS 2278,1994-023A,2026-07-19T13:36:49.103136,14.14394321,.0009399,71.0517,259.1785,199.0165,161.0608,0,U,23087,999,66345,.10505E-3,.154E-5,0
SL-16 R/B,1994-023B,2026-07-19T06:31:20.283456,14.15026487,.000131,70.9991,154.5506,112.2032,247.9229,0,U,23088,999,66470,.17443953E-3,.29E-5,0
SL-16 R/B,1994-074B,2026-07-19T20:01:05.344032,14.79526360,.0007497,97.6985,226.1933,140.8436,31.8851,0,U,23343,999,70678,.26973E-4,.153E-5,0
SL-16 R/B,1994-077B,2026-07-19T20:06:44.481312,14.15575148,.0004153,70.9821,74.4714,299.8423,60.2287,0,U,23405,999,63493,.1122E-3,.172E-5,0
ARIANE 40+ R/B,1995-021B,2026-07-19T19:04:09.543360,14.39848959,.0007959,98.4397,270.3961,104.9329,4.6333,0,U,23561,999,63825,.43624E-4,.94E-6,0
SL-16 R/B,1995-058B,2026-07-19T15:20:40.161408,14.15511307,.001468,71.0206,263.2247,277.1042,82.8412,0,U,23705,999,58652,.16838E-3,.282E-5,0
