SL-14 R/B               
1 20511U 90018B   26200.82011519  .00000188  00000+0  20527-4 0  9990
2 20511  82.5214  99.6074 0016691  22.3269 337.8668 14.82235742942155
HST                     
1 20580U 90037B   26200.34608724  .00002982  00000+0  89068-4 0  9993
2 20580  28.4721 220.7198 0002147 143.8470 216.2271 15.31084694793507
SL-16 R/B               
1 20625U 90046B   26200.81959964  .00000287  00000+0  17263-3 0  9993
2 20625  70.9994  20.4105 0012279 106.1447 254.1028 14.15027677867082
COSMOS 2084             
1 20663U 90055A   26200.46034179  .00000674  00000+0  59566-4 0  9991
2 20663  62.7877 245.9273 0008607 322.1852  37.8643 15.06231688956160
SL-6 R/B(2)             
1 20666U 90055D   26200.89292897  .00001044  00000+0  88178-4 0  9997
2 20666  62.7808 164.0725 0045871   9.6271 350.5697 15.04099600958076
SL-8 R/B                
1 20775U 90078B   26200.83140656  .00007317  00000+0  20718-3 0  9996
2 20775  82.9031 132.1134 0343040 287.7383  68.6677 14.93649748828994
SL-8 R/B                
1 21088U 91006B   26200.88465685  .00000068  00000+0  52976-4 0  9991
2 21088  82.9403  71.7063 0023156  27.8481 343.3193 13.77509863782279
OKEAN-3                 
1 21397U 91039A   26200.77523510  .00001564  00000+0  10682-3 0  9999
2 21397  82.5149 208.7761 0012835 236.8974 123.1021 15.05449803884900
COSMOS 2151             
1 21422U 91042A   26200.80299854  .00000985  00000+0  75978-4 0  9993
2 21422  82.4984 316.2044 0011532 339.3686  20.7071 15.00520725883001
SL-14 R/B               
1 21423U 91042B   26200.76609821  .00000160  00000+0  17245-4 0  9996
2 21423  82.4929  96.3450 0017384 162.0917 198.0913 14.81919460872634
ERS-1                   
1 21574U 91050A   26200.76371332  .00000176  00000+0  70792-4 0  9998
2 21574  98.7796 222.2573 0032186 168.3208 191.8732 14.39535485834731
ARIANE 40 R/B           
1 21610U 91050F   26200.84789082  .00000092  00000+0  39802-4 0  9997
2 21610  98.1859 247.9897 0003932  51.0305 309.1236 14.42973248838051
INTERCOSMOS 25          
1 21819U 91086A   26200.79824068  .00000456  00000+0  86720-4 0  9990
2 21819  82.6000 230.0756 1484802 191.9932 164.1785 12.12242634512695
SL-8 R/B                
1 21876U 92008B   26200.84860139  .00000111  00000+0  98328-4 0  9998
2 21876  82.9277 169.5041 0035893 123.9810 298.9537 13.75984564727594
SL-8 R/B                
1 21938U 92020B   26200.84925536 -.00000007  00000+0 -22708-4 0  9999
2 21938  82.9276  55.5919 0027815 289.9662  80.7292 13.75549901719300
USA 81                  
1 21949U 92023A   26200.68805624  .00000077  00000+0  21024-4 0  9996
2 21949  85.0048  55.2438 0001783  65.0997 295.0381 14.32405607113683
COSMOS 2219             
1 22219U 92076A   26200.80045382 -.00000279  00000+0 -12170-3 0  9993
2 22219  71.0608 101.8971 0018529 350.6074   9.4699 14.14106925737059
SL-16 R/B               
1 22220U 92076B   26200.66622242 -.00000129  00000+0 -40127-4 0  9993
2 22220  71.0000 270.3633 0015042 256.5243 264.6111 14.16877941740528
COSMOS 2221             
1 22236U 92080A   26200.83408534  .00000824  00000+0  69871-4 0  9997
2 22236  82.5049 152.4863 0015911 106.0303 254.2673 14.96611264800551
SL-16 R/B               
1 22285U 92093B   26200.82102557 -.00000255  00000+0 -10640-3 0  9999
2 22285  71.0213  86.8846 0002170 121.2910 238.8426 14.15463982731851
COSMOS 2228             
1 22286U 92094A   26200.82627823  .00000869  00000+0  71801-4 0  9995
2 22286  82.5186 110.7794 0016659 212.4759 147.5440 14.97683182795834
SL-16 R/B               
1 22566U 93016B   26200.66320700  .00000293  00000+0  17500-3 0  9993
2 22566  71.0087 297.9965 0008627 129.9830 230.2051 14.15315310720846
COSMOS 2242             
1 22626U 93024A   26200.80072743  .00000781  00000+0  65514-4 0  9997
2 22626  82.5201 140.3409 0014952 215.8660 144.1560 14.96992125800151
SL-16 R/B               
1 22803U 93059B   26200.81566705  .00000158  00000+0  10195-3 0  9991
2 22803  70.9901  92.4971 0016924   1.6510 358.4667 14.17249935698254
ARIANE 40 R/B           
1 22830U 93061H   26200.81502279  .00000055  00000+0  35855-4 0  9997
2 22830  98.4802 266.9917 0009576 250.3974 109.6177 14.32919528713023
COSMOS 2278             
1 23087U 94023A   26200.56723499  .00000154  00000+0  10505-3 0  9996
2 23087  71.0517 259.1785 0009399 199.0165 161.0608 14.14394321663459
SL-16 R/B               
1 23088U 94023B   26200.27176254  .00000290  00000+0  17444-3 0  9996
2 23088  70.9991 154.5506 0001310 112.2032 247.9229 14.15026487664706
SL-16 R/B               
1 23343U 94074B   26200.83408963  .00000153  00000+0  26973-4 0  9999
2 23343  97.6985 226.1933 0007497 140.8436  31.8851 14.79526360706787
SL-16 R/B               
1 23405U 94077B   26200.83801483  .00000172  00000+0  11220-3 0  9994
2 23405  70.9821  74.4714 0004153 299.8423  60.2287 14.15575148634931
ARIANE 40+ R/B          
1 23561U 95021B   26200.79455490  .00000094  00000+0  43624-4 0  9992
2 23561  98.4397 270.3961 0007959 104.9329   4.6333 14.39848959638258
SL-16 R/B               
1 23705U 95058B   26200.63935372  .00000282  00000+0  16838-3 0  9992
2 23705  71.0206 263.2247 0014680 277.1042  82.8412 14.15511307586522
